[{"OBJECT_NAME":"STARLINK-30196","OBJECT_ID":"2023-105U","EPOCH":"2026-03-09T22:00:01.999584","MEAN_MOTION":15.09468437,"ECCENTRICITY":0.00010591,"INCLINATION":43.0004,"RA_OF_ASC_NODE":259.951,"ARG_OF_PERICENTER":279.5122,"MEAN_ANOMALY":315.018,"EPHEMERIS_TYPE":0,"CLASSIFICATION_TYPE":"U","NORAD_CAT_ID":57448,"ELEMENT_SET_NO":999,"REV_AT_EPOCH":578,"BSTAR":0.0051082416,"MEAN_MOTION_DOT":0.00083985,"MEAN_MOTION_DDOT":0},{"OBJECT_NAME":"YUNYAO-1 48","OBJECT_ID":"2025-059F","EPOCH":"2026-03-09T22:24:05.789376","MEAN_MOTION":15.10574052,"ECCENTRICITY":0.00165064,"INCLINATION":97.6074,"RA_OF_ASC_NODE":250.9983,"ARG_OF_PERICENTER":137.6901,"MEAN_ANOMALY":222.5605,"EPHEMERIS_TYPE":0,"CLASSIFICATION_TYPE":"U","NORAD_CAT_ID":63349,"ELEMENT_SET_NO":999,"REV_AT_EPOCH":5331,"BSTAR":0.00030523847,"MEAN_MOTION_DOT":4.989e-5,"MEAN_MOTION_DDOT":0}]
